{"type":"FeatureCollection","crs":{"type":"name","properties":{"name":"EPSG:4326"}},"features":[{"type":"Feature","id":1,"geometry":{"type":"Polygon","coordinates":[[[-70.651016,-33.557264],[-70.651041,-33.557389],[-70.651582,-33.557332],[-70.652035,-33.557282],[-70.652886,-33.557184],[-70.653784,-33.557095],[-70.653974,-33.557081],[-70.655298,-33.55687],[-70.655361,-33.556863],[-70.65534,-33.55675],[-70.655249,-33.556765],[-70.654922,-33.556835],[-70.654529,-33.556899],[-70.653875,-33.556995],[-70.653718,-33.557005],[-70.652864,-33.557086],[-70.652426,-33.557115],[-70.652291,-33.55713],[-70.651932,-33.55717],[-70.651841,-33.557175],[-70.651501,-33.557225],[-70.65144,-33.557226],[-70.651059,-33.557261],[-70.651016,-33.557264]]]},"properties":{"FID":1,"TIPO":"FERIA LIBRE","NOMBRE":"VICENTE LLANOS","DIAS_FUNCI":"JUEVES Y DOMINGOS","HORARIO":"09:00-14:45","TOTAL_PUES":"150","SECTOR_":"SECTOR EL ROBLE","DOC":"DECRETO N° 1900/1279 DEL 14/09/2006","UBICACION":"VICENTE LLANOS DESDE SAN FRANCISCO HASTA PASAJE GALA","OBSRVACION":" ","FUENTE":"DIAGNOSTICO FERIAS LIBRES Y PERSAS DE LA COMUNA DE LA PINTANA - DEYRE, 2021. CORREO ELECTRONICO DEYRE, 14/11/2022; DECRETO N° 1900/1279 DEL 14/09/2006; DECRETO N° 2300/11/1763 DEL 05/10/2020; DECRETO N° 00184/2021 DEL 15/02/2022","Shape__Area":4797.4429931640625,"Shape__Length":838.16283246486319}},{"type":"Feature","id":2,"geometry":{"type":"Polygon","coordinates":[[[-70.63725,-33.558414],[-70.636833,-33.558478],[-70.636776,-33.55848],[-70.63645,-33.558524],[-70.636375,-33.558547],[-70.636036,-33.558595],[-70.635978,-33.55856],[-70.635804,-33.558583],[-70.63572,-33.558593],[-70.635478,-33.558626],[-70.635242,-33.558666],[-70.635205,-33.558692],[-70.634913,-33.558731],[-70.634817,-33.558744],[-70.634472,-33.558795],[-70.634414,-33.558803],[-70.634323,-33.558815],[-70.634342,-33.558912],[-70.63462,-33.558871],[-70.634696,-33.55886],[-70.634856,-33.558837],[-70.634889,-33.558833],[-70.635061,-33.558808],[-70.63516,-33.558794],[-70.635674,-33.558721],[-70.635816,-33.5587],[-70.635986,-33.558675],[-70.636112,-33.558665],[-70.63645,-33.558611],[-70.636515,-33.558604],[-70.636843,-33.558559],[-70.636918,-33.558549],[-70.63725,-33.5585],[-70.637315,-33.558494],[-70.637716,-33.558436],[-70.6377,-33.558347],[-70.63725,-33.558414]]]},"properties":{"FID":2,"TIPO":"FERIA LIBRE","NOMBRE":"EL BOSQUE","DIAS_FUNCI":"JUEVES Y DOMINGOS","HORARIO":"09:00-14:45","TOTAL_PUES":"189","SECTOR_":"SECTOR EL ROBLE","DOC":"DECRETO N° 1900/1279 DEL 14/09/2006","UBICACION":"DEL SEMBRADOR ENTRE EL BOSQUE Y PEDRO AGUIRRE CERDA","OBSRVACION":" ","FUENTE":"DIAGNOSTICO FERIAS LIBRES Y PERSAS DE LA COMUNA DE LA PINTANA - DEYRE, 2021. CORREO ELECTRONICO DEYRE, 14/11/2022; DECRETO N° 1900/1279 DEL 14/09/2006; DECRETO N° 2300/11/1763 DEL 05/10/2020; DECRETO N° 00184/2021 DEL 15/02/2022","Shape__Area":3357.37890625,"Shape__Length":659.26577053175356}},{"type":"Feature","id":3,"geometry":{"type":"Polygon","coordinates":[[[-70.638517,-33.563812],[-70.638682,-33.563788],[-70.638527,-33.56292],[-70.638526,-33.562893],[-70.638174,-33.560962],[-70.638098,-33.560965],[-70.638004,-33.560971],[-70.638084,-33.561415],[-70.638138,-33.56172],[-70.638144,-33.561787],[-70.638205,-33.562122],[-70.638232,-33.562141],[-70.638281,-33.562446],[-70.63829,-33.562487],[-70.638357,-33.562829],[-70.638372,-33.562934],[-70.638525,-33.563773],[-70.638517,-33.563812]]]},"properties":{"FID":3,"TIPO":"FERIA LIBRE","NOMBRE":"SANTA MAGDALENA","DIAS_FUNCI":"MARTES Y VIERNES","HORARIO":"09:00-14:45","TOTAL_PUES":"209","SECTOR_":"SECTOR EL ROBLE","DOC":"DECRETO N° 1900/1279 DEL 14/09/2006","UBICACION":"PEDRO AGUIRRE CERDA ENTRE AVENIDA EL OBSERVATORIO Y VIOLETA PARRA","OBSRVACION":" ","FUENTE":"DIAGNOSTICO FERIAS LIBRES Y PERSAS DE LA COMUNA DE LA PINTANA - DEYRE, 2021. CORREO ELECTRONICO DEYRE, 14/11/2022; DECRETO N° 1900/1279 DEL 14/09/2006; DECRETO N° 2300/11/1763 DEL 05/10/2020; DECRETO N° 00184/2021 DEL 15/02/2022","Shape__Area":4804.9403076171875,"Shape__Length":667.97212143561012}},{"type":"Feature","id":4,"geometry":{"type":"Polygon","coordinates":[[[-70.646232,-33.560455],[-70.646284,-33.56075],[-70.646377,-33.561266],[-70.646468,-33.561786],[-70.646585,-33.562245],[-70.646614,-33.562435],[-70.646651,-33.562768],[-70.646685,-33.563171],[-70.646722,-33.563387],[-70.646769,-33.563665],[-70.646886,-33.56365],[-70.646805,-33.563241],[-70.646758,-33.562801],[-70.646703,-33.562205],[-70.64669,-33.56211],[-70.646554,-33.561218],[-70.646415,-33.560446],[-70.646232,-33.560455]]]},"properties":{"FID":4,"TIPO":"FERIA LIBRE","NOMBRE":"ALMIRANTE LATORRE","DIAS_FUNCI":"MIERCOLES Y SABADOS","HORARIO":"09:00-14:45","TOTAL_PUES":"208","SECTOR_":"SECTOR EL ROBLE","DOC":"DECRETO N° 1900/1279 DEL 14/09/2006","UBICACION":"ALMIRANTE LATORRE ENTRE AVENIDA EL OBERVATORIO Y VIOLETA PARRA","OBSRVACION":" ","FUENTE":"DIAGNOSTICO FERIAS LIBRES Y PERSAS DE LA COMUNA DE LA PINTANA - DEYRE, 2021. CORREO ELECTRONICO DEYRE, 14/11/2022; DECRETO N° 1900/1279 DEL 14/09/2006; DECRETO N° 2300/11/1763 DEL 05/10/2020; DECRETO N° 00184/2021 DEL 15/02/2022","Shape__Area":4819.611572265625,"Shape__Length":745.78043910855263}},{"type":"Feature","id":5,"geometry":{"type":"Polygon","coordinates":[[[-70.655779,-33.558165],[-70.655655,-33.558194],[-70.655489,-33.558222],[-70.655385,-33.55824],[-70.655262,-33.558262],[-70.655159,-33.55828],[-70.655103,-33.558289],[-70.65501,-33.558306],[-70.654839,-33.558335],[-70.654751,-33.55835],[-70.65469,-33.558361],[-70.654657,-33.558367],[-70.654686,-33.558485],[-70.65471,-33.558481],[-70.654876,-33.558454],[-70.654967,-33.558438],[-70.655098,-33.558417],[-70.655232,-33.558394],[-70.655333,-33.558377],[-70.655407,-33.558365],[-70.655493,-33.558351],[-70.655551,-33.558341],[-70.655638,-33.558326],[-70.655814,-33.558293],[-70.655779,-33.558165]]]},"properties":{"FID":5,"TIPO":"FERIA PERSA","NOMBRE":"SAN FRANCISCO","DIAS_FUNCI":"SABADO, DOMINGO Y FESTIVOS","HORARIO":"09:00-22:00","TOTAL_PUES":"11","SECTOR_":"SECTOR EL ROBLE","DOC":"DECRETO N° 1900/1279 DEL 14/09/2006","UBICACION":"CELANOVA ENTRE SAN FRANCISCO Y PASAJE SAN MATIAS","OBSRVACION":" ","FUENTE":"DIAGNOSTICO FERIAS LIBRES Y PERSAS DE LA COMUNA DE LA PINTANA - DEYRE, 2021. CORREO ELECTRONICO DEYRE, 14/11/2022; DECRETO N° 1900/1279 DEL 14/09/2006; DECRETO N° 2300/11/1763 DEL 05/10/2020; DECRETO N° 00184/2021 DEL 15/02/2022","Shape__Area":1476.8118896484375,"Shape__Length":241.45275674217484}},{"type":"Feature","id":6,"geometry":{"type":"Polygon","coordinates":[[[-70.62288,-33.562238],[-70.623068,-33.561323],[-70.623418,-33.559533],[-70.623674,-33.558301],[-70.623685,-33.558246],[-70.623583,-33.558223],[-70.623479,-33.5582],[-70.623404,-33.558184],[-70.623158,-33.55945],[-70.623134,-33.559535],[-70.62295,-33.560452],[-70.622821,-33.561158],[-70.622828,-33.561224],[-70.622712,-33.561814],[-70.622697,-33.561859],[-70.62263,-33.562192],[-70.622682,-33.562201],[-70.62288,-33.562238]]]},"properties":{"FID":6,"TIPO":"FERIA LIBRE","NOMBRE":"JOAQUIN EDWARDS BELLO","DIAS_FUNCI":"MIERCOLES Y SABADOS (CIRCUITO EL BOSQUE)","HORARIO":"09:00-14:45","TOTAL_PUES":"167","SECTOR_":"SECTOR SANTO TOMAS","DOC":"DECRETO N° 1900/1279 DEL 14/09/2006","UBICACION":"JOAQUIN EDWARDS BELLO ENTRE SANTO TOMAS Y PABLO VI","OBSRVACION":" ","FUENTE":"DIAGNOSTICO FERIAS LIBRES Y PERSAS DE LA COMUNA DE LA PINTANA - DEYRE, 2021. CORREO ELECTRONICO DEYRE, 14/11/2022; DECRETO N° 1900/1279 DEL 14/09/2006; DECRETO N° 2300/11/1763 DEL 05/10/2020; DECRETO N° 00184/2021 DEL 15/02/2022","Shape__Area":11455.680053710938,"Shape__Length":950.27366971861}},{"type":"Feature","id":7,"geometry":{"type":"Polygon","coordinates":[[[-70.612241,-33.555693],[-70.612787,-33.555817],[-70.612807,-33.555832],[-70.613277,-33.555925],[-70.613307,-33.555942],[-70.613811,-33.556052],[-70.614155,-33.556129],[-70.614186,-33.556137],[-70.614256,-33.556135],[-70.61462,-33.556217],[-70.614682,-33.556243],[-70.615088,-33.556329],[-70.615089,-33.556327],[-70.61509,-33.556324],[-70.615107,-33.556323],[-70.615721,-33.556465],[-70.61617,-33.556578],[-70.616171,-33.556573],[-70.616184,-33.556525],[-70.616187,-33.556504],[-70.612254,-33.555644],[-70.612247,-33.555666],[-70.612241,-33.555693]]]},"properties":{"FID":7,"TIPO":"FERIA LIBRE","NOMBRE":"SANTO TOMAS (EX CONCIERTO 1)","DIAS_FUNCI":"MARTES, VIERNES Y DOMINGOS","HORARIO":"09:00-14:45","TOTAL_PUES":"154","SECTOR_":"SECTOR SANTO TOMAS","DOC":"DECRETO N° 1900/1279 DEL 14/09/2006","UBICACION":"SANTO TOMAS ENTRE BAHIA CATALINA Y AVENIDA LA SERA (4 ORIENTE)","OBSRVACION":" ","FUENTE":"DIAGNOSTICO FERIAS LIBRES Y PERSAS DE LA COMUNA DE LA PINTANA - DEYRE, 2021. CORREO ELECTRONICO DEYRE, 14/11/2022; DECRETO N° 1900/1279 DEL 14/09/2006; DECRETO N° 2300/11/1763 DEL 05/10/2020; DECRETO N° 00184/2021 DEL 15/02/2022","Shape__Area":2549.270263671875,"Shape__Length":770.88618902570613}},{"type":"Feature","id":8,"geometry":{"type":"Polygon","coordinates":[[[-70.614186,-33.560399],[-70.614219,-33.56028],[-70.612045,-33.559819],[-70.611978,-33.55982],[-70.611227,-33.559661],[-70.611118,-33.559613],[-70.611072,-33.559772],[-70.612195,-33.559997],[-70.612214,-33.560012],[-70.613012,-33.560184],[-70.613049,-33.560195],[-70.613092,-33.560184],[-70.614186,-33.560399]]]},"properties":{"FID":8,"TIPO":"FERIA PERSA","NOMBRE":"GENERAL ARRIAGADA","DIAS_FUNCI":"SABADO, DOMINGO Y FESTIVOS","HORARIO":"09:00-22:00","TOTAL_PUES":"219","SECTOR_":"SECTOR SANTO TOMAS","DOC":"DECRETO N° 1900/1279 DEL 14/09/2006","UBICACION":"GENERAL ARRIAGADA ENTRE BAHIA CATALINA Y PASAJE CARMEN","OBSRVACION":" ","FUENTE":"DIAGNOSTICO FERIAS LIBRES Y PERSAS DE LA COMUNA DE LA PINTANA - DEYRE, 2021. CORREO ELECTRONICO DEYRE, 14/11/2022; DECRETO N° 1900/1279 DEL 14/09/2006; DECRETO N° 2300/11/1763 DEL 05/10/2020; DECRETO N° 00184/2021 DEL 15/02/2022","Shape__Area":4608.02490234375,"Shape__Length":627.94482113802724}},{"type":"Feature","id":9,"geometry":{"type":"Polygon","coordinates":[[[-70.612635,-33.593387],[-70.612679,-33.592945],[-70.612673,-33.592922],[-70.612702,-33.592594],[-70.612727,-33.59251],[-70.612757,-33.592168],[-70.61276,-33.592111],[-70.612798,-33.591716],[-70.612804,-33.591689],[-70.612841,-33.591348],[-70.612818,-33.591274],[-70.612846,-33.590935],[-70.612888,-33.590845],[-70.612927,-33.590438],[-70.612834,-33.590431],[-70.612769,-33.590425],[-70.612731,-33.59084],[-70.612689,-33.590918],[-70.612657,-33.591288],[-70.612642,-33.591322],[-70.612574,-33.592091],[-70.612626,-33.592187],[-70.612561,-33.592926],[-70.61249,-33.592975],[-70.612453,-33.593375],[-70.612458,-33.593419],[-70.612395,-33.594028],[-70.612385,-33.594107],[-70.612495,-33.594119],[-70.612558,-33.594125],[-70.612631,-33.593395],[-70.612635,-33.593387]]]},"properties":{"FID":9,"TIPO":"FERIA LIBRE","NOMBRE":"EL FUNDADOR","DIAS_FUNCI":"MARTES Y VIERNES","HORARIO":"09:00-14:45","TOTAL_PUES":"264","SECTOR_":"SECTOR EL CASTILLO","DOC":"DECRETO N° 1900/1279 DEL 14/09/2006","UBICACION":"EL FUNDADOR ENTRE BATALLON CHACABUCO Y EL OMBU","OBSRVACION":" ","FUENTE":"DIAGNOSTICO FERIAS LIBRES Y PERSAS DE LA COMUNA DE LA PINTANA - DEYRE, 2021. CORREO ELECTRONICO DEYRE, 14/11/2022; DECRETO N° 1900/1279 DEL 14/09/2006; DECRETO N° 2300/11/1763 DEL 05/10/2020; DECRETO N° 00184/2021 DEL 15/02/2022","Shape__Area":6221.169921875,"Shape__Length":857.18793039003538}},{"type":"Feature","id":10,"geometry":{"type":"Polygon","coordinates":[[[-70.616442,-33.594521],[-70.616819,-33.594552],[-70.617568,-33.594613],[-70.61837,-33.594668],[-70.618392,-33.594673],[-70.619069,-33.594736],[-70.61948,-33.594774],[-70.619508,-33.59477],[-70.619877,-33.594805],[-70.619892,-33.594785],[-70.620624,-33.594848],[-70.621512,-33.594911],[-70.621518,-33.594844],[-70.621527,-33.594812],[-70.621529,-33.594788],[-70.617963,-33.59452],[-70.617918,-33.594525],[-70.617601,-33.594501],[-70.617202,-33.59447],[-70.616459,-33.594416],[-70.616453,-33.594415],[-70.615904,-33.594379],[-70.615858,-33.594375],[-70.615858,-33.594377],[-70.615847,-33.59448],[-70.615911,-33.594485],[-70.616441,-33.594521],[-70.616442,-33.594521]]]},"properties":{"FID":10,"TIPO":"FERIA LIBRE","NOMBRE":"EL OMBU","DIAS_FUNCI":"MIERCOLES Y SABADOS","HORARIO":"09:00-14:45","TOTAL_PUES":"323","SECTOR_":"SECTOR EL CASTILLO","DOC":"DECRETO N° 1900/1279 DEL 14/09/2006","UBICACION":"EL OMBU ENTRE SEXTO DE LINEA Y EL HUALLE","OBSRVACION":" ","FUENTE":"DIAGNOSTICO FERIAS LIBRES Y PERSAS DE LA COMUNA DE LA PINTANA - DEYRE, 2021. CORREO ELECTRONICO DEYRE, 14/11/2022; DECRETO N° 1900/1279 DEL 14/09/2006; DECRETO N° 2300/11/1763 DEL 05/10/2020; DECRETO N° 00184/2021 DEL 15/02/2022","Shape__Area":7065.3753662109375,"Shape__Length":1083.33917961063}},{"type":"Feature","id":11,"geometry":{"type":"Polygon","coordinates":[[[-70.650915,-33.578452],[-70.650939,-33.578574],[-70.652604,-33.578357],[-70.65407,-33.578165],[-70.654163,-33.578254],[-70.655539,-33.578081],[-70.656189,-33.577994],[-70.656241,-33.57799],[-70.656817,-33.577913],[-70.65694,-33.577894],[-70.656931,-33.577844],[-70.656928,-33.577829],[-70.656904,-33.57776],[-70.656831,-33.577721],[-70.656819,-33.577659],[-70.656154,-33.577745],[-70.655561,-33.577839],[-70.655475,-33.577835],[-70.653937,-33.578039],[-70.653898,-33.578058],[-70.652556,-33.578235],[-70.652467,-33.578238],[-70.651699,-33.578323],[-70.650915,-33.578452]]]},"properties":{"FID":11,"TIPO":"FERIA LIBRE","NOMBRE":"21 DE MAYO","DIAS_FUNCI":"MARTES, VIERNES Y DOMINGOS","HORARIO":"09:00-14:45","TOTAL_PUES":"341","SECTOR_":"SECTOR CENTRO","DOC":"DECRETO N° 1900/1279 DEL 14/09/2006","UBICACION":"GENERAL BERNARDINO PARADA ENTRE JOSE TORIBIO MEDINA Y PROFESOR JULIO CHAVEZ","OBSRVACION":" ","FUENTE":"DIAGNOSTICO FERIAS LIBRES Y PERSAS DE LA COMUNA DE LA PINTANA - DEYRE, 2021. CORREO ELECTRONICO DEYRE, 14/11/2022; DECRETO N° 1900/1279 DEL 14/09/2006; DECRETO N° 2300/11/1763 DEL 05/10/2020; DECRETO N° 00184/2021 DEL 15/02/2022","Shape__Area":11618.73486328125,"Shape__Length":1168.0002379267887}},{"type":"Feature","id":12,"geometry":{"type":"Polygon","coordinates":[[[-70.64679,-33.575595],[-70.646607,-33.575602],[-70.646589,-33.575602],[-70.647051,-33.577305],[-70.647281,-33.578143],[-70.647509,-33.578992],[-70.647528,-33.579076],[-70.647622,-33.579443],[-70.647717,-33.57985],[-70.647815,-33.580246],[-70.647951,-33.580773],[-70.648058,-33.581192],[-70.648106,-33.581386],[-70.648114,-33.581416],[-70.648209,-33.581934],[-70.64827,-33.582432],[-70.648379,-33.582844],[-70.648721,-33.584137],[-70.648833,-33.584604],[-70.649177,-33.585852],[-70.649417,-33.586724],[-70.649618,-33.586706],[-70.649382,-33.585833],[-70.649046,-33.58459],[-70.648942,-33.584191],[-70.648923,-33.584119],[-70.64883,-33.58385],[-70.648604,-33.582895],[-70.648424,-33.582097],[-70.647987,-33.580351],[-70.647709,-33.578933],[-70.64761,-33.578946],[-70.647582,-33.578917],[-70.64739,-33.578123],[-70.647201,-33.577284],[-70.64679,-33.575595]]]},"properties":{"FID":12,"TIPO":"FERIA LIBRE","NOMBRE":"JOHN KENNEDY","DIAS_FUNCI":"MIERCOLES Y SABADOS","HORARIO":"09:00-14:45","TOTAL_PUES":"583","SECTOR_":"SECTOR CENTRO","DOC":"DECRETO N° 1900/1279 DEL 14/09/2006","UBICACION":"JOHN KENNEDY ENTRE LO MARTINEZ Y LO BLANCO","OBSRVACION":" ","FUENTE":"DIAGNOSTICO FERIAS LIBRES Y PERSAS DE LA COMUNA DE LA PINTANA - DEYRE, 2021. CORREO ELECTRONICO DEYRE, 14/11/2022; DECRETO N° 1900/1279 DEL 14/09/2006; DECRETO N° 2300/11/1763 DEL 05/10/2020; DECRETO N° 00184/2021 DEL 15/02/2022","Shape__Area":20373.784912109375,"Shape__Length":2568.3412424127196}},{"type":"Feature","id":13,"geometry":{"type":"Polygon","coordinates":[[[-70.638214,-33.580588],[-70.637871,-33.580618],[-70.637803,-33.580623],[-70.637457,-33.580658],[-70.637383,-33.580664],[-70.63705,-33.580697],[-70.636961,-33.580704],[-70.636631,-33.580736],[-70.636532,-33.580744],[-70.636178,-33.580782],[-70.636077,-33.580792],[-70.63574,-33.580826],[-70.635662,-33.580825],[-70.635319,-33.580858],[-70.635248,-33.580903],[-70.634905,-33.580936],[-70.634459,-33.580978],[-70.634026,-33.581019],[-70.634041,-33.581149],[-70.634751,-33.58108],[-70.635719,-33.58099],[-70.636659,-33.580898],[-70.637722,-33.580794],[-70.638732,-33.580696],[-70.638767,-33.580691],[-70.638843,-33.5814],[-70.638923,-33.581394],[-70.638836,-33.58058],[-70.638729,-33.580589],[-70.638724,-33.580539],[-70.638647,-33.580547],[-70.638328,-33.580573],[-70.638214,-33.580588]]]},"properties":{"FID":13,"TIPO":"FERIA LIBRE","NOMBRE":"SAN RAFAEL","DIAS_FUNCI":"MARTES, VIERNES Y DOMINGOS","HORARIO":"09:00-14:45","TOTAL_PUES":"313","SECTOR_":"SECTOR CENTRO","DOC":"DECRETO N° 1900/1279 DEL 14/09/2006","UBICACION":"PADRE PABLO LAURIN ENTRE PORTO ALEGRE Y PATAGONIA","OBSRVACION":" ","FUENTE":"DIAGNOSTICO FERIAS LIBRES Y PERSAS DE LA COMUNA DE LA PINTANA - DEYRE, 2021. CORREO ELECTRONICO DEYRE, 14/11/2022; DECRETO N° 1900/1279 DEL 14/09/2006; DECRETO N° 2300/11/1763 DEL 05/10/2020; DECRETO N° 00184/2021 DEL 15/02/2022","Shape__Area":8187.763427734375,"Shape__Length":1089.1986915493469}},{"type":"Feature","id":14,"geometry":{"type":"Polygon","coordinates":[[[-70.660274,-33.582636],[-70.660207,-33.582651],[-70.6596,-33.582724],[-70.658937,-33.582817],[-70.658285,-33.582897],[-70.657886,-33.58295],[-70.657908,-33.583059],[-70.659047,-33.582911],[-70.659105,-33.582913],[-70.660296,-33.582758],[-70.660373,-33.58274],[-70.661523,-33.582587],[-70.661627,-33.582574],[-70.662456,-33.582468],[-70.662428,-33.58236],[-70.660274,-33.582636]]]},"properties":{"FID":14,"TIPO":"FERIA LIBRE","NOMBRE":"J. RAMIREZ","DIAS_FUNCI":"JUEVES","HORARIO":"09:00-14:45","TOTAL_PUES":"397","SECTOR_":"SECTOR CENTRO","DOC":"DECRETO N° 1900/1279 DEL 14/09/2006","UBICACION":"JULIO BARRENECHEA ENTRE ENTRE SAN FRANCISCO Y PROFESOR JULIO CHAVEZ","OBSRVACION":" ","FUENTE":"DIAGNOSTICO FERIAS LIBRES Y PERSAS DE LA COMUNA DE LA PINTANA - DEYRE, 2021. CORREO ELECTRONICO DEYRE, 14/11/2022; DECRETO N° 1900/1279 DEL 14/09/2006; DECRETO N° 2300/11/1763 DEL 05/10/2020; DECRETO N° 00184/2021 DEL 15/02/2022","Shape__Area":5385.729736328125,"Shape__Length":878.6464382382743}},{"type":"Feature","id":15,"geometry":{"type":"Polygon","coordinates":[[[-70.650571,-33.561897],[-70.651779,-33.561744],[-70.651932,-33.561726],[-70.651932,-33.561731],[-70.651949,-33.561839],[-70.652047,-33.561827],[-70.651925,-33.561188],[-70.651727,-33.560152],[-70.651633,-33.560162],[-70.65169,-33.560507],[-70.651895,-33.561655],[-70.650668,-33.561808],[-70.650253,-33.561856],[-70.65026,-33.561895],[-70.650267,-33.561934],[-70.650571,-33.561897]]]},"properties":{"FID":15,"TIPO":"FERIA LIBRE","NOMBRE":"LAS AGUILAS","DIAS_FUNCI":"MARTES","HORARIO":"09:00-14:45","TOTAL_PUES":"194","SECTOR_":"SECTOR EL ROBLE","DOC":"DECRETO N° 1900/1279 DEL 14/09/2006","UBICACION":"LAS AGUILAS DESDE VIOLETA PARRA HASTA ANTONIO MACHADO Y DOBLANDO AL ORIENTE HASTA FRANCISCO DE GOYA","OBSRVACION":" ","FUENTE":"DIAGNOSTICO FERIAS LIBRES Y PERSAS DE LA COMUNA DE LA PINTANA - DEYRE, 2021. CORREO ELECTRONICO DEYRE, 14/11/2022; DECRETO N° 1900/1279 DEL 14/09/2006; DECRETO N° 2300/11/1763 DEL 05/10/2020; DECRETO N° 00184/2021 DEL 15/02/2022","Shape__Area":3179.4678955078125,"Shape__Length":705.20231528060481}},{"type":"Feature","id":28,"geometry":{"type":"Polygon","coordinates":[[[-70.615167,-33.56054],[-70.615273,-33.560569],[-70.61533,-33.560411],[-70.615663,-33.559327],[-70.615845,-33.558646],[-70.6159,-33.558459],[-70.616277,-33.556933],[-70.616355,-33.556621],[-70.616221,-33.556588],[-70.615834,-33.55821],[-70.615555,-33.559263],[-70.615314,-33.560104],[-70.615167,-33.56054]]]},"properties":{"FID":28,"TIPO":"FERIA LIBRE","NOMBRE":"AVENIDA LA SERENA (EX LAS PARCELAS EX CONCIERTO 2)","DIAS_FUNCI":"MIERCOLES Y SABADOS","HORARIO":"09:00-14:45","TOTAL_PUES":"181","SECTOR_":"SECTOR SANTO TOMAS","DOC":"DECRETO N° 00184/2021 DEL 15/02/2021","UBICACION":"AVENIDA LA SERNA (4 ORIENTE) ENTRE SANTO TOMAS Y GENERAL ARRIAGADA","OBSRVACION":" ","FUENTE":"DIAGNOSTICO FERIAS LIBRES Y PERSAS DE LA COMUNA DE LA PINTANA - DEYRE, 2021. CORREO ELECTRONICO DEYRE, 14/11/2022; DECRETO N° 1900/1279 DEL 14/09/2006; DECRETO N° 2300/11/1763 DEL 05/10/2020; DECRETO N° 00184/2021 DEL 15/02/2022","Shape__Area":5169.92431640625,"Shape__Length":921.84250720615523}},{"type":"Feature","id":33,"geometry":{"type":"Polygon","coordinates":[[[-70.642865,-33.581193],[-70.642851,-33.581094],[-70.642415,-33.581133],[-70.641239,-33.581248],[-70.640662,-33.5813],[-70.640261,-33.581312],[-70.638961,-33.581388],[-70.638843,-33.5814],[-70.638848,-33.58146],[-70.640372,-33.581346],[-70.640608,-33.581396],[-70.642779,-33.581201],[-70.642865,-33.581193]]]},"properties":{"FID":33,"TIPO":"FERIA LIBRE","NOMBRE":"TONGOY","DIAS_FUNCI":"MARTES, VIERNES Y DOMINGOS","HORARIO":"09:00-14:45","TOTAL_PUES":"127","SECTOR_":"SECTOR CENTRO","DOC":"DECRETO N° 2300/11/1763 DEL 05/10/2020","UBICACION":"LIMITE ORIENTE Y PASAJE 6","OBSRVACION":" ","FUENTE":"DIAGNOSTICO FERIAS LIBRES Y PERSAS DE LA COMUNA DE LA PINTANA - DEYRE, 2021. CORREO ELECTRONICO DEYRE, 14/11/2022; DECRETO N° 1900/1279 DEL 14/09/2006; DECRETO N° 2300/11/1763 DEL 05/10/2020; DECRETO N° 00184/2021 DEL 15/02/2022","Shape__Area":3194.4017333984375,"Shape__Length":766.81608304262966}},{"type":"Feature","id":41,"geometry":{"type":"Polygon","coordinates":[[[-70.618837,-33.59205],[-70.617873,-33.591968],[-70.617862,-33.592067],[-70.617935,-33.592073],[-70.61812,-33.592087],[-70.6185,-33.592117],[-70.618833,-33.592144],[-70.618837,-33.59205]]]},"properties":{"FID":41,"TIPO":"FERIA PERSA","NOMBRE":"EL LINGUE","DIAS_FUNCI":"SABADO, DOMINGO Y FESTIVOS","HORARIO":"09:00-22:00","TOTAL_PUES":"90","SECTOR_":"SECTOR EL CASTILLO","DOC":"DECRETO N° 1900/1279 DEL 14/09/2006","UBICACION":"EL LINGUE ENTRE JUANITA Y PASAJE EL LILEN","OBSRVACION":" ","FUENTE":"DIAGNOSTICO FERIAS LIBRES Y PERSAS DE LA COMUNA DE LA PINTANA - DEYRE, 2021. CORREO ELECTRONICO DEYRE, 14/11/2022; DECRETO N° 1900/1279 DEL 14/09/2006; DECRETO N° 2300/11/1763 DEL 05/10/2020; DECRETO N° 00184/2021 DEL 15/02/2022","Shape__Area":965.2716064453125,"Shape__Length":201.9952955343191}},{"type":"Feature","id":42,"geometry":{"type":"Polygon","coordinates":[[[-70.619157,-33.588073],[-70.619157,-33.588075],[-70.619156,-33.588075],[-70.618971,-33.589995],[-70.618579,-33.593784],[-70.618586,-33.593784],[-70.618499,-33.594628],[-70.618684,-33.594641],[-70.618689,-33.594565],[-70.618763,-33.59383],[-70.618756,-33.593797],[-70.618765,-33.593797],[-70.61877,-33.593721],[-70.618844,-33.592986],[-70.618841,-33.592973],[-70.618935,-33.592082],[-70.618928,-33.592064],[-70.619016,-33.591238],[-70.619002,-33.591199],[-70.61903,-33.590897],[-70.619053,-33.590789],[-70.619132,-33.589955],[-70.619134,-33.589945],[-70.61924,-33.588817],[-70.619236,-33.588775],[-70.619296,-33.588089],[-70.619287,-33.588088],[-70.619287,-33.588088],[-70.619157,-33.588073]]]},"properties":{"FID":42,"TIPO":"FERIA LIBRE","NOMBRE":"JUANITA","DIAS_FUNCI":"JUEVES Y DOMINGOS","HORARIO":"09:00-14:45","TOTAL_PUES":"312","SECTOR_":"SECTOR EL CASTILLO","DOC":"DECRETO N° 1900/1279 DEL 14/09/2006","UBICACION":"JUANITA ENTRE EL OMBU Y BATALLON MAIPO","OBSRVACION":" ","FUENTE":"DIAGNOSTICO FERIAS LIBRES Y PERSAS DE LA COMUNA DE LA PINTANA - DEYRE, 2021. CORREO ELECTRONICO DEYRE, 14/11/2022; DECRETO N° 1900/1279 DEL 14/09/2006; DECRETO N° 2300/11/1763 DEL 05/10/2020; DECRETO N° 00184/2021 DEL 15/02/2022","Shape__Area":11280.859497070313,"Shape__Length":1490.9792654455921}},{"type":"Feature","id":43,"geometry":{"type":"Polygon","coordinates":[[[-70.62288,-33.562238],[-70.623068,-33.561323],[-70.623418,-33.559533],[-70.623674,-33.558301],[-70.623685,-33.558246],[-70.623583,-33.558223],[-70.623479,-33.5582],[-70.623404,-33.558184],[-70.623158,-33.55945],[-70.623134,-33.559535],[-70.62295,-33.560452],[-70.622821,-33.561158],[-70.622828,-33.561224],[-70.622712,-33.561814],[-70.622697,-33.561859],[-70.62263,-33.562192],[-70.622682,-33.562201],[-70.62288,-33.562238]]]},"properties":{"FID":43,"TIPO":"FERIA LIBRE","NOMBRE":"JOAQUIN EDWARDS BELLO","DIAS_FUNCI":"MIERCOLES Y SABADOS (CIRCUITO SANTO TOMAS)","HORARIO":"09:00-14:45","TOTAL_PUES":"132","SECTOR_":"SECTOR SANTO TOMAS","DOC":"DECRETO N° 1900/1279 DEL 14/09/2006","UBICACION":"JOAQUIN EDWARDS BELLO ENTRE SANTO TOMAS Y PABLO VI","OBSRVACION":" ","FUENTE":"DIAGNOSTICO FERIAS LIBRES Y PERSAS DE LA COMUNA DE LA PINTANA - DEYRE, 2021. CORREO ELECTRONICO DEYRE, 14/11/2022; DECRETO N° 1900/1279 DEL 14/09/2006; DECRETO N° 2300/11/1763 DEL 05/10/2020; DECRETO N° 00184/2021 DEL 15/02/2022","Shape__Area":11455.680053710938,"Shape__Length":950.27366971861}}]}