{"type":"FeatureCollection","crs":{"type":"name","properties":{"name":"EPSG:4326"}},"features":[{"type":"Feature","id":1,"geometry":{"type":"Polygon","coordinates":[[[-70.6327,-33.55811],[-70.63209,-33.55816],[-70.63094,-33.55804],[-70.63057,-33.55976],[-70.63052,-33.56032],[-70.63032,-33.56579],[-70.63548,-33.56519],[-70.65684,-33.56242],[-70.65584,-33.55826],[-70.65492,-33.55497],[-70.64703,-33.55609],[-70.64491,-33.55646],[-70.6327,-33.55811]]]},"properties":{"OBJECTID":1,"SECTOR":"SECTOR EL ROBLE","SUPERFICIE":1980460,"Shape__Area":1978876.0671386719,"Shape__Length":6458.8371878484222}},{"type":"Feature","id":2,"geometry":{"type":"Polygon","coordinates":[[[-70.61247,-33.56367],[-70.63028,-33.56659],[-70.63052,-33.56032],[-70.6306,-33.55977],[-70.61224,-33.55566],[-70.61046,-33.56195],[-70.61267,-33.56219],[-70.61247,-33.56367]]]},"properties":{"OBJECTID":2,"SECTOR":"SECTOR SANTO TOMAS","SUPERFICIE":1444260,"Shape__Area":1443103.2056884766,"Shape__Length":5303.8604701607528}},{"type":"Feature","id":3,"geometry":{"type":"Polygon","coordinates":[[[-70.63144,-33.5657],[-70.63032,-33.56579],[-70.63002,-33.57056],[-70.62946,-33.5771],[-70.63434,-33.57671],[-70.64632,-33.57555],[-70.64679,-33.57556],[-70.65725,-33.57415],[-70.65726,-33.57423],[-70.6598,-33.57389],[-70.6601,-33.57379],[-70.65973,-33.57284],[-70.65684,-33.56242],[-70.63144,-33.5657]]]},"properties":{"OBJECTID":3,"SECTOR":"SECTOR ANTUMAPU","SUPERFICIE":3415800,"Shape__Area":3413075.4473876953,"Shape__Length":7924.2352233523279}},{"type":"Feature","id":4,"geometry":{"type":"Polygon","coordinates":[[[-70.6296,-33.5771],[-70.62946,-33.5771],[-70.62821,-33.58889],[-70.62838,-33.58873],[-70.63028,-33.58852],[-70.63823,-33.58777],[-70.63947,-33.58757],[-70.65047,-33.58666],[-70.65522,-33.58605],[-70.65625,-33.58608],[-70.66326,-33.58519],[-70.6601,-33.57379],[-70.6598,-33.57389],[-70.65726,-33.57423],[-70.65725,-33.57415],[-70.64679,-33.57556],[-70.64632,-33.57555],[-70.63434,-33.57671],[-70.6296,-33.5771]]]},"properties":{"OBJECTID":4,"SECTOR":"SECTOR CENTRO","SUPERFICIE":3895950,"Shape__Area":3892846.8233642578,"Shape__Length":8782.24273178167}},{"type":"Feature","id":5,"geometry":{"type":"Polygon","coordinates":[[[-70.62946,-33.5771],[-70.63002,-33.57056],[-70.63028,-33.56659],[-70.61233,-33.56366],[-70.61136,-33.5701],[-70.61254,-33.57011],[-70.61228,-33.5713],[-70.611,-33.57988],[-70.62895,-33.5822],[-70.62946,-33.5771]]]},"properties":{"OBJECTID":5,"SECTOR":"SECTOR LA PLATINA","SUPERFICIE":2969590,"Shape__Area":2967221.0382080078,"Shape__Length":7049.522716642432}},{"type":"Feature","id":6,"geometry":{"type":"Polygon","coordinates":[[[-70.62774,-33.59399],[-70.62821,-33.58889],[-70.62639,-33.58862],[-70.61714,-33.58772],[-70.6158,-33.58752],[-70.60956,-33.58687],[-70.60792,-33.59092],[-70.60766,-33.59183],[-70.60722,-33.59433],[-70.60788,-33.59435],[-70.62751,-33.59648],[-70.62774,-33.59399]]]},"properties":{"OBJECTID":6,"SECTOR":"SECTOR EL CASTILLO","SUPERFICIE":1557500,"Shape__Area":1556253.1977539063,"Shape__Length":5354.9033901133789}},{"type":"Feature","id":7,"geometry":{"type":"Polygon","coordinates":[[[-70.62704,-33.60465],[-70.62719,-33.59999],[-70.62751,-33.59648],[-70.60788,-33.59435],[-70.60722,-33.59433],[-70.60681,-33.59681],[-70.60624,-33.59894],[-70.60514,-33.60168],[-70.6146,-33.60304],[-70.62704,-33.60465]]]},"properties":{"OBJECTID":7,"SECTOR":"SECTOR EX FUNDO LA PRIMAVERA","SUPERFICIE":1706780,"Shape__Area":1705421.8282470703,"Shape__Length":5708.991996850441}},{"type":"Feature","id":8,"geometry":{"type":"Polygon","coordinates":[[[-70.6267,-33.61157],[-70.62655,-33.61855],[-70.62807,-33.62497],[-70.62874,-33.62745],[-70.63372,-33.62724],[-70.64478,-33.62714],[-70.64336,-33.62156],[-70.6461,-33.62131],[-70.64474,-33.61615],[-70.6449,-33.61604],[-70.64335,-33.61013],[-70.6267,-33.61157]]]},"properties":{"OBJECTID":8,"SECTOR":"SECTOR HUERTOS JOSE MAZA DE LA PINTANA","SUPERFICIE":2942870,"Shape__Area":2940526.8620605469,"Shape__Length":6990.128708393022}},{"type":"Feature","id":9,"geometry":{"type":"Polygon","coordinates":[[[-70.60956,-33.58687],[-70.6158,-33.58752],[-70.61714,-33.58772],[-70.62639,-33.58862],[-70.62821,-33.58889],[-70.62895,-33.5822],[-70.611,-33.57988],[-70.61087,-33.58093],[-70.61074,-33.58126],[-70.61045,-33.58305],[-70.61031,-33.58326],[-70.61013,-33.58511],[-70.60992,-33.58537],[-70.60973,-33.58584],[-70.60956,-33.58687]]]},"properties":{"OBJECTID":9,"SECTOR":"SECTOR LAS ROSAS","SUPERFICIE":1304560,"Shape__Area":1303515.1934814453,"Shape__Length":4974.6527331915322}},{"type":"Feature","id":10,"geometry":{"type":"Polygon","coordinates":[[[-70.62838,-33.58873],[-70.62821,-33.58889],[-70.62774,-33.59399],[-70.64052,-33.59325],[-70.64741,-33.59272],[-70.64853,-33.59839],[-70.65461,-33.5979],[-70.66694,-33.59658],[-70.66558,-33.59255],[-70.66326,-33.58519],[-70.66317,-33.58516],[-70.65625,-33.58608],[-70.65522,-33.58605],[-70.65047,-33.58666],[-70.63947,-33.58757],[-70.63823,-33.58777],[-70.62838,-33.58873]]]},"properties":{"OBJECTID":10,"SECTOR":"SECTOR MAPUHUE","SUPERFICIE":3220200,"Shape__Area":3217630.6447753906,"Shape__Length":9354.9132543223586}},{"type":"Feature","id":11,"geometry":{"type":"Polygon","coordinates":[[[-70.62671,-33.61136],[-70.6267,-33.61157],[-70.6268,-33.61156],[-70.64321,-33.61012],[-70.64324,-33.60986],[-70.67091,-33.60742],[-70.67011,-33.60551],[-70.66868,-33.60163],[-70.66694,-33.59658],[-70.65181,-33.59815],[-70.62719,-33.60002],[-70.627,-33.60769],[-70.6268,-33.61135],[-70.62671,-33.61136]]]},"properties":{"OBJECTID":11,"SECTOR":"SECTOR EX FUNDO SAN ANTONIO","SUPERFICIE":4822760,"Shape__Area":4818910.072265625,"Shape__Length":10409.41418297241}},{"type":"Feature","id":12,"geometry":{"type":"Polygon","coordinates":[[[-70.6275,-33.59648],[-70.62719,-33.60002],[-70.64046,-33.59906],[-70.64852,-33.59839],[-70.64741,-33.59272],[-70.64052,-33.59325],[-70.62773,-33.59399],[-70.6275,-33.59648]]]},"properties":{"OBJECTID":12,"SECTOR":"SECTOR EX FUNDO LA ESPERANZA","SUPERFICIE":1234040,"Shape__Area":1233056.9736328125,"Shape__Length":5128.390641973022}}]}