{"type":"FeatureCollection","crs":{"type":"name","properties":{"name":"EPSG:4326"}},"features":[{"type":"Feature","id":1,"geometry":{"type":"Polygon","coordinates":[[[-70.62213,-33.56525],[-70.62353,-33.55821],[-70.61224,-33.55566],[-70.61046,-33.56195],[-70.61261,-33.56218],[-70.61239,-33.56367],[-70.62213,-33.56525]]]},"properties":{"FID":1,"UN_VECINAL":"UV 22","SECTOR":"SECTOR SANTO TOMAS","SUP_M2":891244.527454,"Shape__Area":1287170.80078125,"Shape__Length":4669.5470821114077}},{"type":"Feature","id":2,"geometry":{"type":"Polygon","coordinates":[[[-70.63144,-33.5657],[-70.63032,-33.56579],[-70.63002,-33.57056],[-70.62946,-33.5771],[-70.63434,-33.57671],[-70.64632,-33.57555],[-70.64679,-33.57556],[-70.65725,-33.57415],[-70.65726,-33.57423],[-70.6598,-33.57389],[-70.6601,-33.57379],[-70.65973,-33.57284],[-70.65684,-33.56242],[-70.63144,-33.5657]]]},"properties":{"FID":2,"UN_VECINAL":"UV 23","SECTOR":"SECTOR ANTUMAPU","SUP_M2":3413110.40939,"Shape__Area":4930329.98046875,"Shape__Length":9516.3566924116585}},{"type":"Feature","id":3,"geometry":{"type":"Polygon","coordinates":[[[-70.62704,-33.60465],[-70.6273,-33.59842],[-70.62751,-33.59648],[-70.60788,-33.59435],[-70.60722,-33.59433],[-70.60681,-33.59681],[-70.60624,-33.59894],[-70.60514,-33.60168],[-70.6146,-33.60304],[-70.62704,-33.60465]]]},"properties":{"FID":3,"UN_VECINAL":"UV 17","SECTOR":"SECTOR EX FUNDO LA PRIMAVERA","SUP_M2":1706738.74418,"Shape__Area":2467141.251953125,"Shape__Length":6857.8994360678071}},{"type":"Feature","id":4,"geometry":{"type":"Polygon","coordinates":[[[-70.6267,-33.61157],[-70.62655,-33.61855],[-70.62807,-33.62497],[-70.62874,-33.62745],[-70.63372,-33.62724],[-70.64478,-33.62714],[-70.64336,-33.62156],[-70.6461,-33.62131],[-70.64474,-33.61615],[-70.6449,-33.61604],[-70.64335,-33.61013],[-70.6267,-33.61157]]]},"properties":{"FID":4,"UN_VECINAL":"UV 18","SECTOR":"SECTOR HUERTOS JOSE MAZA DE LA PINTANA","SUP_M2":2940526.83236,"Shape__Area":4252474.373046875,"Shape__Length":8406.5640803736533}},{"type":"Feature","id":5,"geometry":{"type":"Polygon","coordinates":[[[-70.65655,-33.58604],[-70.65522,-33.58605],[-70.65047,-33.58666],[-70.63947,-33.58757],[-70.63823,-33.58777],[-70.62838,-33.58873],[-70.62821,-33.58889],[-70.6273,-33.59842],[-70.62704,-33.60465],[-70.627,-33.60769],[-70.6268,-33.61135],[-70.62671,-33.61136],[-70.6267,-33.61157],[-70.64321,-33.61012],[-70.64324,-33.60986],[-70.67091,-33.60742],[-70.67011,-33.60551],[-70.66819,-33.6003],[-70.66785,-33.59909],[-70.66558,-33.59255],[-70.66326,-33.58519],[-70.65655,-33.58604]]]},"properties":{"FID":5,"UN_VECINAL":"UV 13","SECTOR":"SECTOR MAPUHUE","SUP_M2":9268290.53665,"Shape__Area":13397085.697265625,"Shape__Length":15064.775009259032}},{"type":"Feature","id":6,"geometry":{"type":"Polygon","coordinates":[[[-70.62276,-33.59019],[-70.62805,-33.59065],[-70.62821,-33.58889],[-70.62641,-33.58863],[-70.61714,-33.58772],[-70.61439,-33.58737],[-70.6142,-33.58941],[-70.61885,-33.58977],[-70.62276,-33.59019]]]},"properties":{"FID":6,"UN_VECINAL":"UV 14","SECTOR":"SECTOR EL CASTILLO","SUP_M2":274478.010196,"Shape__Area":396670.779296875,"Shape__Length":3613.6247815466882}},{"type":"Feature","id":7,"geometry":{"type":"Polygon","coordinates":[[[-70.6443,-33.55654],[-70.64472,-33.55806],[-70.64594,-33.55788],[-70.6464,-33.56045],[-70.64677,-33.56043],[-70.64695,-33.56152],[-70.64651,-33.56158],[-70.64655,-33.56183],[-70.64595,-33.56191],[-70.6457,-33.56049],[-70.64497,-33.56055],[-70.6456,-33.56388],[-70.65684,-33.56242],[-70.65584,-33.55826],[-70.65492,-33.55497],[-70.6443,-33.55654]]]},"properties":{"FID":7,"UN_VECINAL":"UV 1","SECTOR":"SECTOR EL ROBLE","SUP_M2":811425.830474,"Shape__Area":1171837.15234375,"Shape__Length":5239.7725856150792}},{"type":"Feature","id":8,"geometry":{"type":"Polygon","coordinates":[[[-70.62213,-33.56525],[-70.63028,-33.56659],[-70.63052,-33.56032],[-70.6306,-33.55977],[-70.62353,-33.55821],[-70.62213,-33.56525]]]},"properties":{"FID":8,"UN_VECINAL":"UV 20","SECTOR":"SECTOR SANTO TOMAS","SUP_M2":552863.257095,"Shape__Area":798498.439453125,"Shape__Length":3606.7506883357037}},{"type":"Feature","id":9,"geometry":{"type":"Polygon","coordinates":[[[-70.6077,-33.59438],[-70.61444,-33.59509],[-70.61461,-33.59354],[-70.61383,-33.59348],[-70.61439,-33.58737],[-70.60956,-33.58687],[-70.60792,-33.59092],[-70.60767,-33.59177],[-70.60722,-33.59433],[-70.6077,-33.59438]]]},"properties":{"FID":9,"UN_VECINAL":"UV 15","SECTOR":"SECTOR EL CASTILLO","SUP_M2":471573.970534,"Shape__Area":681547.564453125,"Shape__Length":3506.1146845184921}},{"type":"Feature","id":10,"geometry":{"type":"Polygon","coordinates":[[[-70.61412,-33.5903],[-70.61402,-33.59141],[-70.62788,-33.59249],[-70.62805,-33.59065],[-70.62035,-33.58997],[-70.61885,-33.58977],[-70.6142,-33.58941],[-70.61412,-33.5903]]]},"properties":{"FID":10,"UN_VECINAL":"UV 16","SECTOR":"SECTOR EL CASTILLO","SUP_M2":277356.257496,"Shape__Area":400848.154296875,"Shape__Length":3622.6024370592459}},{"type":"Feature","id":11,"geometry":{"type":"Polygon","coordinates":[[[-70.614,-33.59159],[-70.61383,-33.59348],[-70.61461,-33.59354],[-70.61444,-33.59509],[-70.62751,-33.59648],[-70.62788,-33.59249],[-70.61402,-33.59141],[-70.614,-33.59159]]]},"properties":{"FID":11,"UN_VECINAL":"UV 19","SECTOR":"SECTOR EL CASTILLO","SUP_M2":532517.131225,"Shape__Area":769667.41015625,"Shape__Length":4132.7112764276}},{"type":"Feature","id":12,"geometry":{"type":"Polygon","coordinates":[[[-70.65453,-33.57811],[-70.65684,-33.586],[-70.66326,-33.58519],[-70.66135,-33.57829],[-70.65879,-33.57869],[-70.65859,-33.57751],[-70.65453,-33.57811]]]},"properties":{"FID":12,"UN_VECINAL":"UV 10","SECTOR":"SECTOR CENTRO","SUP_M2":517074.462644,"Shape__Area":747122.79296875,"Shape__Length":3696.8350666922747}},{"type":"Feature","id":13,"geometry":{"type":"Polygon","coordinates":[[[-70.65262,-33.58505],[-70.65287,-33.58634],[-70.65522,-33.58605],[-70.65625,-33.58608],[-70.65684,-33.586],[-70.65351,-33.57467],[-70.65028,-33.57511],[-70.65093,-33.5786],[-70.65117,-33.57919],[-70.65157,-33.58121],[-70.65212,-33.58245],[-70.65262,-33.58505]]]},"properties":{"FID":13,"UN_VECINAL":"UV 6","SECTOR":"SECTOR CENTRO","SUP_M2":431357.124875,"Shape__Area":623255.26171875,"Shape__Length":3908.3142846760438}},{"type":"Feature","id":14,"geometry":{"type":"Polygon","coordinates":[[[-70.64819,-33.57538],[-70.64665,-33.57556],[-70.64877,-33.58377],[-70.64882,-33.58416],[-70.64889,-33.58422],[-70.64955,-33.58674],[-70.65287,-33.58634],[-70.65212,-33.58245],[-70.65157,-33.58121],[-70.65117,-33.57919],[-70.65093,-33.5786],[-70.65028,-33.57511],[-70.64819,-33.57538]]]},"properties":{"FID":14,"UN_VECINAL":"UV 7","SECTOR":"SECTOR CENTRO","SUP_M2":411830.430282,"Shape__Area":595046.900390625,"Shape__Length":3847.5139798780342}},{"type":"Feature","id":15,"geometry":{"type":"Polygon","coordinates":[[[-70.6438,-33.58173],[-70.64814,-33.58133],[-70.64665,-33.57556],[-70.63987,-33.57615],[-70.64042,-33.58204],[-70.6438,-33.58173]]]},"properties":{"FID":15,"UN_VECINAL":"UV 8","SECTOR":"SECTOR CENTRO","SUP_M2":442494.693374,"Shape__Area":639325.5234375,"Shape__Length":3234.6648658120007}},{"type":"Feature","id":16,"geometry":{"type":"Polygon","coordinates":[[[-70.63927,-33.58573],[-70.64274,-33.58549],[-70.64316,-33.58533],[-70.64418,-33.58464],[-70.64882,-33.58416],[-70.64877,-33.58377],[-70.64814,-33.58133],[-70.64042,-33.58204],[-70.64041,-33.58199],[-70.63888,-33.58211],[-70.63927,-33.58573]]]},"properties":{"FID":16,"UN_VECINAL":"UV 11","SECTOR":"SECTOR CENTRO","SUP_M2":316847.395282,"Shape__Area":457835.3125,"Shape__Length":3024.3936755281779}},{"type":"Feature","id":17,"geometry":{"type":"Polygon","coordinates":[[[-70.62895,-33.5822],[-70.62887,-33.58298],[-70.64041,-33.58199],[-70.63987,-33.57615],[-70.63434,-33.57671],[-70.62946,-33.5771],[-70.62895,-33.5822]]]},"properties":{"FID":17,"UN_VECINAL":"UV 9","SECTOR":"SECTOR CENTRO","SUP_M2":657155.15889,"Shape__Area":949494.181640625,"Shape__Length":4029.7200522089552}},{"type":"Feature","id":18,"geometry":{"type":"Polygon","coordinates":[[[-70.64587,-33.58446],[-70.64413,-33.58466],[-70.64316,-33.58533],[-70.64274,-33.58549],[-70.63927,-33.58573],[-70.63948,-33.58757],[-70.64955,-33.58674],[-70.64889,-33.58422],[-70.64882,-33.58416],[-70.64587,-33.58446]]]},"properties":{"FID":18,"UN_VECINAL":"UV 21","SECTOR":"SECTOR CENTRO","SUP_M2":230152.385892,"Shape__Area":332583.591796875,"Shape__Length":2838.9071546398386}},{"type":"Feature","id":19,"geometry":{"type":"Polygon","coordinates":[[[-70.65725,-33.57415],[-70.65351,-33.57467],[-70.65453,-33.57811],[-70.65859,-33.57751],[-70.65879,-33.57869],[-70.66135,-33.57829],[-70.6601,-33.57379],[-70.65978,-33.57389],[-70.65726,-33.57423],[-70.65725,-33.57415]]]},"properties":{"FID":19,"UN_VECINAL":"UV 5","SECTOR":"SECTOR CENTRO","SUP_M2":268835.759926,"Shape__Area":388392.22265625,"Shape__Length":2777.7300616569419}},{"type":"Feature","id":20,"geometry":{"type":"Polygon","coordinates":[[[-70.63886,-33.58211],[-70.62887,-33.58298],[-70.62821,-33.58889],[-70.62838,-33.58873],[-70.63823,-33.58777],[-70.63948,-33.58757],[-70.63886,-33.58211]]]},"properties":{"FID":20,"UN_VECINAL":"UV 12","SECTOR":"SECTOR CENTRO","SUP_M2":617093.395431,"Shape__Area":891730.009765625,"Shape__Length":3924.3169279307785}},{"type":"Feature","id":21,"geometry":{"type":"Polygon","coordinates":[[[-70.62946,-33.5771],[-70.63002,-33.57056],[-70.63028,-33.56659],[-70.61233,-33.56366],[-70.61136,-33.5701],[-70.61254,-33.57011],[-70.61228,-33.5713],[-70.61102,-33.57978],[-70.61966,-33.5809],[-70.61999,-33.58105],[-70.62895,-33.5822],[-70.62946,-33.5771]]]},"properties":{"FID":21,"UN_VECINAL":"UV 24","SECTOR":"SECTOR LA PLATINA","SUP_M2":2957456.39602,"Shape__Area":4272491.35546875,"Shape__Length":8464.3356610863084}},{"type":"Feature","id":22,"geometry":{"type":"Polygon","coordinates":[[[-70.62809,-33.58887],[-70.62821,-33.58889],[-70.62895,-33.5822],[-70.62,-33.58105],[-70.61966,-33.5809],[-70.61102,-33.57978],[-70.61087,-33.58093],[-70.61074,-33.58126],[-70.61045,-33.58305],[-70.61031,-33.58326],[-70.61013,-33.58511],[-70.60992,-33.58537],[-70.60973,-33.58584],[-70.60956,-33.58687],[-70.6158,-33.58752],[-70.61714,-33.58772],[-70.62641,-33.58863],[-70.62809,-33.58887]]]},"properties":{"FID":22,"UN_VECINAL":"UV 4","SECTOR":"SECTOR LAS ROSAS","SUP_M2":1313537.06917,"Shape__Area":1898102.890625,"Shape__Length":5991.6173851394115}},{"type":"Feature","id":23,"geometry":{"type":"Polygon","coordinates":[[[-70.6327,-33.55811],[-70.63209,-33.55816],[-70.63094,-33.55804],[-70.63057,-33.55976],[-70.63052,-33.56032],[-70.63032,-33.56579],[-70.63908,-33.56473],[-70.63839,-33.56095],[-70.63885,-33.56093],[-70.63871,-33.55991],[-70.638,-33.55999],[-70.63792,-33.5595],[-70.63983,-33.55924],[-70.6395,-33.55715],[-70.6327,-33.55811]]]},"properties":{"FID":23,"UN_VECINAL":"UV 3","SECTOR":"SECTOR EL ROBLE","SUP_M2":652617.987244,"Shape__Area":942546.0390625,"Shape__Length":4338.0752095437138}},{"type":"Feature","id":24,"geometry":{"type":"Polygon","coordinates":[[[-70.64655,-33.56183],[-70.64651,-33.56158],[-70.64695,-33.56152],[-70.64677,-33.56043],[-70.6464,-33.56045],[-70.64594,-33.55788],[-70.64472,-33.55806],[-70.6443,-33.55654],[-70.6395,-33.55715],[-70.63983,-33.55924],[-70.63792,-33.5595],[-70.638,-33.55999],[-70.63871,-33.55991],[-70.63885,-33.56093],[-70.63839,-33.56095],[-70.63908,-33.56473],[-70.6456,-33.56388],[-70.64497,-33.56055],[-70.6457,-33.56049],[-70.64595,-33.56191],[-70.64655,-33.56183]]]},"properties":{"FID":24,"UN_VECINAL":"UV 2","SECTOR":"SECTOR EL ROBLE","SUP_M2":514786.650612,"Shape__Area":743464.833984375,"Shape__Length":4373.8182113812281}}]}